start=new Date('2023-01-09T00:00:00.000Z').valueOf();
sats=[{"REF_FRAME":"TEME","PERIAPSIS":"537.919","TIME_SYSTEM":"UTC","COUNTRY_CODE":"US","MEAN_MOTION":"15.08848457","SITE":"AFETR","APOAPSIS":"541.520","NORAD_CAT_ID":"51863","MEAN_MOTION_DOT":"0.00004877","OBJECT_TYPE":"PAYLOAD","ARG_OF_PERICENTER":"44.9325","EPHEMERIS_TYPE":"0","MEAN_ANOMALY":"315.1877","TLE_LINE1":"1 51863U 22022M   23008.81714267  .00004877  00000-0  32427-3 0  9997","OBJECT_ID":"2022-022M","ELEMENT_SET_NO":"999","INCLINATION":"53.2168","REV_AT_EPOCH":"4861","EPOCH":"2023-01-08T19:36:41.126688","DECAY_DATE":null,"SEMIMAJOR_AXIS":"6917.855","MEAN_ELEMENT_THEORY":"SGP4","CLASSIFICATION_TYPE":"U","MEAN_MOTION_DDOT":"0.0000000000000","CENTER_NAME":"EARTH","RA_OF_ASC_NODE":"158.0421","RCS_SIZE":"MEDIUM","BSTAR":"0.00032427000000","GP_ID":"222499375","FILE":"3736460","OBJECT_NAME":"STARLINK-3555","LAUNCH_DATE":"2022-03-03","TLE_LINE2":"2 51863  53.2168 158.0421 0002603  44.9325 315.1877 15.08848457 48610","ECCENTRICITY":"0.00026030","PERIOD":"95.437"},{"COUNTRY_CODE":"US","PERIAPSIS":"537.813","TIME_SYSTEM":"UTC","REF_FRAME":"TEME","MEAN_MOTION_DOT":"-0.00000256","OBJECT_TYPE":"PAYLOAD","ARG_OF_PERICENTER":"43.0879","APOAPSIS":"541.707","NORAD_CAT_ID":"51864","SITE":"AFETR","MEAN_MOTION":"15.08835214","EPOCH":"2023-01-08T11:55:39.148032","INCLINATION":"53.2169","REV_AT_EPOCH":"4861","ELEMENT_SET_NO":"999","OBJECT_ID":"2022-022N","TLE_LINE1":"1 51864U 22022N   23008.49698088 -.00000256  00000-0  20642-5 0  9990","MEAN_ANOMALY":"317.0333","EPHEMERIS_TYPE":"0","LAUNCH_DATE":"2022-03-03","TLE_LINE2":"2 51864  53.2169 159.4819 0002814  43.0879 317.0333 15.08835214 48611","ECCENTRICITY":"0.00028140","PERIOD":"95.438","BSTAR":"0.00000206420000","FILE":"3736235","GP_ID":"222467142","OBJECT_NAME":"STARLINK-3548","MEAN_MOTION_DDOT":"0.0000000000000","CENTER_NAME":"EARTH","RA_OF_ASC_NODE":"159.4819","RCS_SIZE":"LARGE","CLASSIFICATION_TYPE":"U","MEAN_ELEMENT_THEORY":"SGP4","DECAY_DATE":null,"SEMIMAJOR_AXIS":"6917.895"},{"BSTAR":"0.00014737000000","GP_ID":"222498375","OBJECT_NAME":"STARLINK-3503","FILE":"3736460","TLE_LINE2":"2 51865  53.2151 158.0730 0003244  34.8635 325.2569 15.08837169 48619","LAUNCH_DATE":"2022-03-03","PERIOD":"95.438","ECCENTRICITY":"0.00032440","MEAN_ELEMENT_THEORY":"SGP4","CLASSIFICATION_TYPE":"U","SEMIMAJOR_AXIS":"6917.889","DECAY_DATE":null,"MEAN_MOTION_DDOT":"0.0000000000000","CENTER_NAME":"EARTH","RA_OF_ASC_NODE":"158.0730","RCS_SIZE":"LARGE","INCLINATION":"53.2151","REV_AT_EPOCH":"4861","EPOCH":"2023-01-08T19:26:04.954848","MEAN_ANOMALY":"325.2569","EPHEMERIS_TYPE":"0","ELEMENT_SET_NO":"999","OBJECT_ID":"2022-022P","TLE_LINE1":"1 51865U 22022P   23008.80977957  .00002057  00000-0  14737-3 0  9997","SITE":"AFETR","MEAN_MOTION_DOT":"0.00002057","OBJECT_TYPE":"PAYLOAD","ARG_OF_PERICENTER":"34.8635","APOAPSIS":"541.998","NORAD_CAT_ID":"51865","MEAN_MOTION":"15.08837169","COUNTRY_CODE":"US","REF_FRAME":"TEME","PERIAPSIS":"537.510","TIME_SYSTEM":"UTC"},{"RCS_SIZE":"LARGE","RA_OF_ASC_NODE":"159.2039","MEAN_MOTION_DDOT":"0.0000000000000","CENTER_NAME":"EARTH","SEMIMAJOR_AXIS":"6917.885","DECAY_DATE":null,"MEAN_ELEMENT_THEORY":"SGP4","CLASSIFICATION_TYPE":"U","PERIOD":"95.438","ECCENTRICITY":"0.00028460","LAUNCH_DATE":"2022-03-03","TLE_LINE2":"2 51866  53.2186 159.2039 0002846  43.9049 316.2169 15.08838467 48573","OBJECT_NAME":"STARLINK-3553","GP_ID":"222498624","FILE":"3736460","BSTAR":"0.00012098000000","TLE_LINE1":"1 51866U 22022Q   23008.55586017  .00001637  00000-0  12098-3 0  9994","ELEMENT_SET_NO":"999","OBJECT_ID":"2022-022Q","EPHEMERIS_TYPE":"0","MEAN_ANOMALY":"316.2169","EPOCH":"2023-01-08T13:20:26.318688","REV_AT_EPOCH":"4857","INCLINATION":"53.2186","MEAN_MOTION":"15.08838467","NORAD_CAT_ID":"51866","APOAPSIS":"541.719","ARG_OF_PERICENTER":"43.9049","OBJECT_TYPE":"PAYLOAD","MEAN_MOTION_DOT":"0.00001637","SITE":"AFETR","TIME_SYSTEM":"UTC","PERIAPSIS":"537.781","REF_FRAME":"TEME","COUNTRY_CODE":"US"},{"SITE":"AFETR","MEAN_MOTION_DOT":"0.00002742","OBJECT_TYPE":"PAYLOAD","ARG_OF_PERICENTER":"45.1621","APOAPSIS":"541.530","NORAD_CAT_ID":"51867","MEAN_MOTION":"15.08841987","COUNTRY_CODE":"US","REF_FRAME":"TEME","PERIAPSIS":"537.948","TIME_SYSTEM":"UTC","BSTAR":"0.00019030000000","GP_ID":"222499875","FILE":"3736460","OBJECT_NAME":"STARLINK-3590","TLE_LINE2":"2 51867  53.2146 158.0856 0002589  45.1621 314.9581 15.08841987 48617","LAUNCH_DATE":"2022-03-03","ECCENTRICITY":"0.00025890","PERIOD":"95.437","MEAN_ELEMENT_THEORY":"SGP4","CLASSIFICATION_TYPE":"U","DECAY_DATE":null,"SEMIMAJOR_AXIS":"6917.874","CENTER_NAME":"EARTH","MEAN_MOTION_DDOT":"0.0000000000000","RCS_SIZE":"LARGE","RA_OF_ASC_NODE":"158.0856","INCLINATION":"53.2146","REV_AT_EPOCH":"4861","EPOCH":"2023-01-08T19:20:46.625280","MEAN_ANOMALY":"314.9581","EPHEMERIS_TYPE":"0","ELEMENT_SET_NO":"999","OBJECT_ID":"2022-022R","TLE_LINE1":"1 51867U 22022R   23008.80609520  .00002742  00000-0  19030-3 0  9999"},{"EPOCH":"2023-01-08T09:59:05.991648","INCLINATION":"53.2150","REV_AT_EPOCH":"4855","TLE_LINE1":"1 51868U 22022S   23008.41604157  .00000730  00000-0  63963-4 0  9998","ELEMENT_SET_NO":"999","OBJECT_ID":"2022-022S","EPHEMERIS_TYPE":"0","MEAN_ANOMALY":"292.8277","TLE_LINE2":"2 51868  53.2150 159.8354 0002880  67.3020 292.8277 15.08852793 48554","LAUNCH_DATE":"2022-03-03","ECCENTRICITY":"0.00028800","PERIOD":"95.437","BSTAR":"0.00006396300000","OBJECT_NAME":"STARLINK-3578","GP_ID":"222466642","FILE":"3736235","MEAN_MOTION_DDOT":"0.0000000000000","CENTER_NAME":"EARTH","RCS_SIZE":"LARGE","RA_OF_ASC_NODE":"159.8354","DECAY_DATE":null,"SEMIMAJOR_AXIS":"6917.841","CLASSIFICATION_TYPE":"U","MEAN_ELEMENT_THEORY":"SGP4","COUNTRY_CODE":"US","PERIAPSIS":"537.714","TIME_SYSTEM":"UTC","REF_FRAME":"TEME","APOAPSIS":"541.699","NORAD_CAT_ID":"51868","MEAN_MOTION_DOT":"0.00000730","OBJECT_TYPE":"PAYLOAD","ARG_OF_PERICENTER":"67.3020","SITE":"AFETR","MEAN_MOTION":"15.08852793"},{"MEAN_MOTION":"15.08840441","APOAPSIS":"541.338","NORAD_CAT_ID":"51869","OBJECT_TYPE":"PAYLOAD","MEAN_MOTION_DOT":"0.00003163","ARG_OF_PERICENTER":"47.5298","SITE":"AFETR","PERIAPSIS":"538.150","TIME_SYSTEM":"UTC","REF_FRAME":"TEME","COUNTRY_CODE":"US","MEAN_MOTION_DDOT":"0.0000000000000","CENTER_NAME":"EARTH","RCS_SIZE":"LARGE","RA_OF_ASC_NODE":"158.1421","DECAY_DATE":null,"SEMIMAJOR_AXIS":"6917.879","CLASSIFICATION_TYPE":"U","MEAN_ELEMENT_THEORY":"SGP4","LAUNCH_DATE":"2022-03-03","TLE_LINE2":"2 51869  53.2142 158.1421 0002304  47.5298 312.5889 15.08840441 48614","ECCENTRICITY":"0.00023040","PERIOD":"95.438","BSTAR":"0.00021674000000","FILE":"3736460","GP_ID":"222498874","OBJECT_NAME":"STARLINK-3588","TLE_LINE1":"1 51869U 22022T   23008.79505868  .00003163  00000-0  21674-3 0  9994","ELEMENT_SET_NO":"999","OBJECT_ID":"2022-022T","EPHEMERIS_TYPE":"0","MEAN_ANOMALY":"312.5889","EPOCH":"2023-01-08T19:04:53.069952","INCLINATION":"53.2142","REV_AT_EPOCH":"4861"},{"LAUNCH_DATE":"2022-03-03","TLE_LINE2":"2 51870  53.2148 158.1017 0002887  44.4076 315.7147 15.08847889 48669","PERIOD":"95.437","ECCENTRICITY":"0.00028870","BSTAR":"0.00009738100000","FILE":"3736460","GP_ID":"222499124","OBJECT_NAME":"STARLINK-3591","MEAN_MOTION_DDOT":"0.0000000000000","CENTER_NAME":"EARTH","RCS_SIZE":"LARGE","RA_OF_ASC_NODE":"158.1017","CLASSIFICATION_TYPE":"U","MEAN_ELEMENT_THEORY":"SGP4","SEMIMAJOR_AXIS":"6917.856","DECAY_DATE":null,"EPOCH":"2023-01-08T19:15:28.524672","INCLINATION":"53.2148","REV_AT_EPOCH":"4866","ELEMENT_SET_NO":"999","OBJECT_ID":"2022-022U","TLE_LINE1":"1 51870U 22022U   23008.80241348  .00001262  00000-0  97381-4 0  9995","MEAN_ANOMALY":"315.7147","EPHEMERIS_TYPE":"0","MEAN_MOTION_DOT":"0.00001262","OBJECT_TYPE":"PAYLOAD","ARG_OF_PERICENTER":"44.4076","APOAPSIS":"541.718","NORAD_CAT_ID":"51870","SITE":"AFETR","MEAN_MOTION":"15.08847889","COUNTRY_CODE":"US","PERIAPSIS":"537.724","TIME_SYSTEM":"UTC","REF_FRAME":"TEME"},{"COUNTRY_CODE":"US","PERIAPSIS":"537.792","TIME_SYSTEM":"UTC","REF_FRAME":"TEME","APOAPSIS":"541.688","NORAD_CAT_ID":"51871","MEAN_MOTION_DOT":"0.00004150","OBJECT_TYPE":"PAYLOAD","ARG_OF_PERICENTER":"41.0587","SITE":"AFETR","MEAN_MOTION":"15.08841688","EPOCH":"2023-01-08T18:59:35.723616","INCLINATION":"53.2152","REV_AT_EPOCH":"4872","TLE_LINE1":"1 51871U 22022V   23008.79138569  .00004150  00000-0  27866-3 0  9993","OBJECT_ID":"2022-022V","ELEMENT_SET_NO":"999","EPHEMERIS_TYPE":"0","MEAN_ANOMALY":"319.0617","TLE_LINE2":"2 51871  53.2152 158.1579 0002816  41.0587 319.0617 15.08841688 48727","LAUNCH_DATE":"2022-03-03","PERIOD":"95.437","ECCENTRICITY":"0.00028160","BSTAR":"0.00027866000000","OBJECT_NAME":"STARLINK-3567","GP_ID":"222499376","FILE":"3736460","MEAN_MOTION_DDOT":"0.0000000000000","CENTER_NAME":"EARTH","RCS_SIZE":"LARGE","RA_OF_ASC_NODE":"158.1579","DECAY_DATE":null,"SEMIMAJOR_AXIS":"6917.875","CLASSIFICATION_TYPE":"U","MEAN_ELEMENT_THEORY":"SGP4"},{"RCS_SIZE":"LARGE","RA_OF_ASC_NODE":"158.7268","MEAN_MOTION_DDOT":"0.0000000000000","CENTER_NAME":"EARTH","DECAY_DATE":null,"SEMIMAJOR_AXIS":"6917.866","CLASSIFICATION_TYPE":"U","MEAN_ELEMENT_THEORY":"SGP4","ECCENTRICITY":"0.00025390","PERIOD":"95.437","LAUNCH_DATE":"2022-03-03","TLE_LINE2":"2 51872  53.2172 158.7268 0002539  45.3633 314.7565 15.08844583 48598","OBJECT_NAME":"STARLINK-3554","GP_ID":"222499627","FILE":"3736460","BSTAR":"0.00021620000000","TLE_LINE1":"1 51872U 22022W   23008.66625722  .00003155  00000-0  21620-3 0  9998","ELEMENT_SET_NO":"999","OBJECT_ID":"2022-022W","EPHEMERIS_TYPE":"0","MEAN_ANOMALY":"314.7565","EPOCH":"2023-01-08T15:59:24.623808","REV_AT_EPOCH":"4859","INCLINATION":"53.2172","MEAN_MOTION":"15.08844583","NORAD_CAT_ID":"51872","APOAPSIS":"541.488","ARG_OF_PERICENTER":"45.3633","MEAN_MOTION_DOT":"0.00003155","OBJECT_TYPE":"PAYLOAD","SITE":"AFETR","TIME_SYSTEM":"UTC","PERIAPSIS":"537.975","REF_FRAME":"TEME","COUNTRY_CODE":"US"}];
